start=new Date('2023-02-05T00:00:00.000Z').valueOf();
sats=[{"COUNTRY_CODE":"US","MEAN_MOTION_DOT":"0.00003768","MEAN_ANOMALY":"272.7591","FILE":"3772514","OBJECT_TYPE":"PAYLOAD","MEAN_MOTION_DDOT":"0.0000000000000","ECCENTRICITY":"0.00012210","EPOCH":"2023-02-04T20:14:08.178144","PERIAPSIS":"538.885","DECAY_DATE":null,"INCLINATION":"53.2154","ARG_OF_PERICENTER":"87.3541","REF_FRAME":"TEME","MEAN_MOTION":"15.08845065","TLE_LINE2":"2 53977  53.2154 246.7890 0001221  87.3541 272.7591 15.08845065 18973","SITE":"AFWTR","SEMIMAJOR_AXIS":"6917.865","OBJECT_NAME":"STARLINK-5094","OBJECT_ID":"2022-125P","RCS_SIZE":"LARGE","PERIOD":"95.437","CENTER_NAME":"EARTH","REV_AT_EPOCH":"1897","ELEMENT_SET_NO":"999","EPHEMERIS_TYPE":"0","CLASSIFICATION_TYPE":"U","LAUNCH_DATE":"2022-10-05","APOAPSIS":"540.575","RA_OF_ASC_NODE":"246.7890","TLE_LINE1":"1 53977U 22125P   23035.84315021  .00003768  00000-0  25467-3 0  9991","GP_ID":"224443131","NORAD_CAT_ID":"53977","TIME_SYSTEM":"UTC","BSTAR":"0.00025467000000","MEAN_ELEMENT_THEORY":"SGP4"},{"SEMIMAJOR_AXIS":"6917.867","OBJECT_NAME":"STARLINK-5148","SITE":"AFWTR","DECAY_DATE":null,"PERIAPSIS":"538.750","REF_FRAME":"TEME","ARG_OF_PERICENTER":"86.3004","INCLINATION":"53.2141","MEAN_MOTION":"15.08844217","TLE_LINE2":"2 53978  53.2141 246.3846 0001420  86.3004 273.8150 15.08844217 18983","EPOCH":"2023-02-04T21:22:59.474496","ECCENTRICITY":"0.00014200","OBJECT_TYPE":"PAYLOAD","MEAN_MOTION_DDOT":"0.0000000000000","MEAN_MOTION_DOT":"0.00001288","COUNTRY_CODE":"US","MEAN_ANOMALY":"273.8150","FILE":"3772514","TIME_SYSTEM":"UTC","BSTAR":"0.00009901700000","MEAN_ELEMENT_THEORY":"SGP4","TLE_LINE1":"1 53978U 22125Q   23035.89096614  .00001288  00000-0  99017-4 0  9999","GP_ID":"224443381","RA_OF_ASC_NODE":"246.3846","NORAD_CAT_ID":"53978","ELEMENT_SET_NO":"999","EPHEMERIS_TYPE":"0","CLASSIFICATION_TYPE":"U","APOAPSIS":"540.715","LAUNCH_DATE":"2022-10-05","REV_AT_EPOCH":"1898","CENTER_NAME":"EARTH","OBJECT_ID":"2022-125Q","RCS_SIZE":"LARGE","PERIOD":"95.437"},{"SITE":"AFWTR","OBJECT_NAME":"STARLINK-5123","SEMIMAJOR_AXIS":"6917.861","EPOCH":"2023-02-04T21:33:35.998848","INCLINATION":"53.2150","DECAY_DATE":null,"PERIAPSIS":"538.903","ARG_OF_PERICENTER":"89.3296","REF_FRAME":"TEME","MEAN_MOTION":"15.08846349","TLE_LINE2":"2 53979  53.2150 246.4236 0001189  89.3296 270.7832 15.08846349 18987","OBJECT_TYPE":"PAYLOAD","MEAN_MOTION_DDOT":"0.0000000000000","ECCENTRICITY":"0.00011890","MEAN_MOTION_DOT":"0.00001439","COUNTRY_CODE":"US","FILE":"3772514","MEAN_ANOMALY":"270.7832","BSTAR":"0.00010848000000","TIME_SYSTEM":"UTC","MEAN_ELEMENT_THEORY":"SGP4","ELEMENT_SET_NO":"999","EPHEMERIS_TYPE":"0","CLASSIFICATION_TYPE":"U","APOAPSIS":"540.549","LAUNCH_DATE":"2022-10-05","RA_OF_ASC_NODE":"246.4236","TLE_LINE1":"1 53979U 22125R   23035.89833332  .00001439  00000-0  10848-3 0  9998","GP_ID":"224444622","NORAD_CAT_ID":"53979","CENTER_NAME":"EARTH","REV_AT_EPOCH":"1898","RCS_SIZE":"LARGE","OBJECT_ID":"2022-125R","PERIOD":"95.437"},{"ECCENTRICITY":"0.00012190","OBJECT_TYPE":"PAYLOAD","MEAN_MOTION_DDOT":"0.0000000000000","COUNTRY_CODE":"US","MEAN_MOTION_DOT":"0.00000494","MEAN_ANOMALY":"270.1756","FILE":"3772514","SEMIMAJOR_AXIS":"6917.855","OBJECT_NAME":"STARLINK-5133","SITE":"AFWTR","PERIAPSIS":"538.877","DECAY_DATE":null,"INCLINATION":"53.2132","REF_FRAME":"TEME","ARG_OF_PERICENTER":"89.9375","TLE_LINE2":"2 53980  53.2132 246.3188 0001219  89.9375 270.1756 15.08848346 18980","MEAN_MOTION":"15.08848346","EPOCH":"2023-02-04T21:07:04.077120","REV_AT_EPOCH":"1898","CENTER_NAME":"EARTH","OBJECT_ID":"2022-125S","RCS_SIZE":"LARGE","PERIOD":"95.437","TIME_SYSTEM":"UTC","BSTAR":"0.00004909200000","MEAN_ELEMENT_THEORY":"SGP4","GP_ID":"224444358","TLE_LINE1":"1 53980U 22125S   23035.87990830  .00000494  00000-0  49092-4 0  9999","RA_OF_ASC_NODE":"246.3188","NORAD_CAT_ID":"53980","ELEMENT_SET_NO":"999","EPHEMERIS_TYPE":"0","CLASSIFICATION_TYPE":"U","APOAPSIS":"540.563","LAUNCH_DATE":"2022-10-05"},{"SITE":"AFWTR","OBJECT_NAME":"STARLINK-5149","SEMIMAJOR_AXIS":"6917.854","EPOCH":"2023-02-04T19:24:20.815200","MEAN_MOTION":"15.08848744","TLE_LINE2":"2 53981  53.2145 231.6356 0001154  81.9994 278.1129 15.08848744 19183","DECAY_DATE":null,"PERIAPSIS":"538.920","ARG_OF_PERICENTER":"81.9994","INCLINATION":"53.2145","REF_FRAME":"TEME","MEAN_MOTION_DDOT":"0.0000000000000","OBJECT_TYPE":"PAYLOAD","ECCENTRICITY":"0.00011540","FILE":"3772514","MEAN_ANOMALY":"278.1129","MEAN_MOTION_DOT":"0.00000602","COUNTRY_CODE":"US","MEAN_ELEMENT_THEORY":"SGP4","BSTAR":"0.00005590700000","TIME_SYSTEM":"UTC","APOAPSIS":"540.517","LAUNCH_DATE":"2022-10-05","CLASSIFICATION_TYPE":"U","ELEMENT_SET_NO":"999","EPHEMERIS_TYPE":"0","NORAD_CAT_ID":"53981","GP_ID":"224443632","TLE_LINE1":"1 53981U 22125T   23035.80857425  .00000602  00000-0  55907-4 0  9998","RA_OF_ASC_NODE":"231.6356","CENTER_NAME":"EARTH","REV_AT_EPOCH":"1918","PERIOD":"95.437","RCS_SIZE":"LARGE","OBJECT_ID":"2022-125T"},{"ELEMENT_SET_NO":"999","EPHEMERIS_TYPE":"0","CLASSIFICATION_TYPE":"U","APOAPSIS":"540.626","LAUNCH_DATE":"2022-10-05","TLE_LINE1":"1 53982U 22125U   23035.83712392  .00000736  00000-0  64313-4 0  9994","GP_ID":"224443881","RA_OF_ASC_NODE":"241.7759","NORAD_CAT_ID":"53982","TIME_SYSTEM":"UTC","BSTAR":"0.00006431300000","MEAN_ELEMENT_THEORY":"SGP4","OBJECT_ID":"2022-125U","RCS_SIZE":"LARGE","PERIOD":"95.437","REV_AT_EPOCH":"1903","CENTER_NAME":"EARTH","EPOCH":"2023-02-04T20:05:27.506688","DECAY_DATE":null,"REF_FRAME":"TEME","PERIAPSIS":"538.822","ARG_OF_PERICENTER":"90.4229","INCLINATION":"53.2139","TLE_LINE2":"2 53982  53.2139 241.7759 0001304  90.4229 269.6912 15.08846959 19034","MEAN_MOTION":"15.08846959","SITE":"AFWTR","SEMIMAJOR_AXIS":"6917.859","OBJECT_NAME":"STARLINK-5120","COUNTRY_CODE":"US","MEAN_MOTION_DOT":"0.00000736","MEAN_ANOMALY":"269.6912","FILE":"3772514","OBJECT_TYPE":"PAYLOAD","MEAN_MOTION_DDOT":"0.0000000000000","ECCENTRICITY":"0.00013040"},{"FILE":"3772514","MEAN_ANOMALY":"275.1986","COUNTRY_CODE":"US","MEAN_MOTION_DOT":"0.00000875","MEAN_MOTION_DDOT":"0.0000000000000","OBJECT_TYPE":"PAYLOAD","ECCENTRICITY":"0.00011840","EPOCH":"2023-02-04T19:34:57.112320","MEAN_MOTION":"15.08843396","TLE_LINE2":"2 53983  53.2176 231.6564 0001184  84.9141 275.1986 15.08843396 19186","PERIAPSIS":"538.916","DECAY_DATE":null,"REF_FRAME":"TEME","INCLINATION":"53.2176","ARG_OF_PERICENTER":"84.9141","SITE":"AFWTR","OBJECT_NAME":"STARLINK-5103","SEMIMAJOR_AXIS":"6917.870","PERIOD":"95.437","RCS_SIZE":"LARGE","OBJECT_ID":"2022-125V","CENTER_NAME":"EARTH","REV_AT_EPOCH":"1918","LAUNCH_DATE":"2022-10-05","APOAPSIS":"540.554","ELEMENT_SET_NO":"999","CLASSIFICATION_TYPE":"U","EPHEMERIS_TYPE":"0","NORAD_CAT_ID":"53983","TLE_LINE1":"1 53983U 22125V   23035.81593880  .00000875  00000-0  73023-4 0  9994","GP_ID":"224444127","RA_OF_ASC_NODE":"231.6564","MEAN_ELEMENT_THEORY":"SGP4","BSTAR":"0.00007302300000","TIME_SYSTEM":"UTC"},{"MEAN_MOTION_DOT":"0.00001261","COUNTRY_CODE":"US","FILE":"3772514","MEAN_ANOMALY":"275.9444","OBJECT_TYPE":"PAYLOAD","MEAN_MOTION_DDOT":"0.0000000000000","ECCENTRICITY":"0.00010690","EPOCH":"2023-02-04T20:21:22.435776","DECAY_DATE":null,"PERIAPSIS":"538.982","INCLINATION":"53.2154","ARG_OF_PERICENTER":"84.1670","REF_FRAME":"TEME","TLE_LINE2":"2 53984  53.2154 241.8414 0001069  84.1670 275.9444 15.08847963 19047","MEAN_MOTION":"15.08847963","SITE":"AFWTR","OBJECT_NAME":"STARLINK-5142","SEMIMAJOR_AXIS":"6917.856","RCS_SIZE":"LARGE","OBJECT_ID":"2022-125W","PERIOD":"95.437","CENTER_NAME":"EARTH","REV_AT_EPOCH":"1904","EPHEMERIS_TYPE":"0","ELEMENT_SET_NO":"999","CLASSIFICATION_TYPE":"U","LAUNCH_DATE":"2022-10-05","APOAPSIS":"540.461","GP_ID":"224444853","TLE_LINE1":"1 53984U 22125W   23035.84817634  .00001261  00000-0  97250-4 0  9992","RA_OF_ASC_NODE":"241.8414","NORAD_CAT_ID":"53984","BSTAR":"0.00009725000000","TIME_SYSTEM":"UTC","MEAN_ELEMENT_THEORY":"SGP4"},{"OBJECT_ID":"2022-125X","RCS_SIZE":"LARGE","PERIOD":"95.437","REV_AT_EPOCH":"1904","CENTER_NAME":"EARTH","TLE_LINE1":"1 53985U 22125X   23035.85555030  .00000501  00000-0  49544-4 0  9992","GP_ID":"224443132","RA_OF_ASC_NODE":"241.8803","NORAD_CAT_ID":"53985","EPHEMERIS_TYPE":"0","ELEMENT_SET_NO":"999","CLASSIFICATION_TYPE":"U","APOAPSIS":"540.515","LAUNCH_DATE":"2022-10-05","TIME_SYSTEM":"UTC","BSTAR":"0.00004954400000","MEAN_ELEMENT_THEORY":"SGP4","MEAN_MOTION_DOT":"0.00000501","COUNTRY_CODE":"US","MEAN_ANOMALY":"274.0218","FILE":"3772514","ECCENTRICITY":"0.00011190","OBJECT_TYPE":"PAYLOAD","MEAN_MOTION_DDOT":"0.0000000000000","PERIAPSIS":"538.967","DECAY_DATE":null,"INCLINATION":"53.2157","ARG_OF_PERICENTER":"86.0902","REF_FRAME":"TEME","TLE_LINE2":"2 53985  53.2157 241.8803 0001119  86.0902 274.0218 15.08841404 19041","MEAN_MOTION":"15.08841404","EPOCH":"2023-02-04T20:31:59.545920","SEMIMAJOR_AXIS":"6917.876","OBJECT_NAME":"STARLINK-5147","SITE":"AFWTR"},{"COUNTRY_CODE":"US","MEAN_MOTION_DOT":"0.00000514","FILE":"3772514","MEAN_ANOMALY":"264.9548","ECCENTRICITY":"0.00013080","OBJECT_TYPE":"PAYLOAD","MEAN_MOTION_DDOT":"0.0000000000000","DECAY_DATE":null,"PERIAPSIS":"538.836","INCLINATION":"53.2171","REF_FRAME":"TEME","ARG_OF_PERICENTER":"95.1593","MEAN_MOTION":"15.08841588","TLE_LINE2":"2 53986  53.2171 231.5701 0001308  95.1593 264.9548 15.08841588 19179","EPOCH":"2023-02-04T19:13:44.302944","OBJECT_NAME":"STARLINK-5119","SEMIMAJOR_AXIS":"6917.876","SITE":"AFWTR","RCS_SIZE":"LARGE","OBJECT_ID":"2022-125Y","PERIOD":"95.437","REV_AT_EPOCH":"1917","CENTER_NAME":"EARTH","RA_OF_ASC_NODE":"231.5701","TLE_LINE1":"1 53986U 22125Y   23035.80120721  .00000514  00000-0  50393-4 0  9991","GP_ID":"224443382","NORAD_CAT_ID":"53986","ELEMENT_SET_NO":"999","EPHEMERIS_TYPE":"0","CLASSIFICATION_TYPE":"U","LAUNCH_DATE":"2022-10-05","APOAPSIS":"540.645","BSTAR":"0.00005039300000","TIME_SYSTEM":"UTC","MEAN_ELEMENT_THEORY":"SGP4"}];
